{"type": "FeatureCollection", "name": "rete_archi", "crs": {"type": "name", "properties": {"name": "urn:ogc:def:crs:OGC:1.3:CRS84"}}, "features": [{"type": "Feature", "properties": {"osm_id": "35672251", "highway": "residential", "nome": "Via D'Ossuna", "lunghezza_m": 150.97, "betweenness_edge": 0.00653151, "u_node": 866, "v_node": 867, "circoscrizione": "V", "quartiere": "Zisa", "upl": "Zisa - Ingastone"}, "geometry": {"type": "LineString", "coordinates": [[13.3466154, 38.1147971], [13.3482867, 38.115124]]}}, {"type": "Feature", "properties": {"osm_id": "35672251", "highway": "residential", "nome": "Via D'Ossuna", "lunghezza_m": 105.85, "betweenness_edge": 0.00651681, "u_node": 867, "v_node": 868, "circoscrizione": "V", "quartiere": "Zisa", "upl": "Zisa - Ingastone"}, "geometry": {"type": "LineString", "coordinates": [[13.3482867, 38.115124], [13.3494567, 38.1153588]]}}, {"type": "Feature", "properties": {"osm_id": "35675165", "highway": "residential", "nome": "Via D'Ossuna", "lunghezza_m": 68.63, "betweenness_edge": 0.00656233, "u_node": 868, "v_node": 934, "circoscrizione": "V", "quartiere": "Zisa", "upl": "Zisa - Ingastone"}, "geometry": {"type": "LineString", "coordinates": [[13.3494567, 38.1153588], [13.3502167, 38.11550669999998]]}}, {"type": "Feature", "properties": {"osm_id": "35675165", "highway": "residential", "nome": "Via D'Ossuna", "lunghezza_m": 26.07, "betweenness_edge": 0.00659159, "u_node": 934, "v_node": 935, "circoscrizione": "V", "quartiere": "Zisa", "upl": "Zisa - Ingastone"}, "geometry": {"type": "LineString", "coordinates": [[13.3502167, 38.11550669999998], [13.3505054, 38.1155629]]}}, {"type": "Feature", "properties": {"osm_id": "35675165", "highway": "residential", "nome": "Via D'Ossuna", "lunghezza_m": 72.22, "betweenness_edge": 0.00525997, "u_node": 935, "v_node": 936, "circoscrizione": "V", "quartiere": "Zisa", "upl": "Zisa - Ingastone"}, "geometry": {"type": "LineString", "coordinates": [[13.3505054, 38.1155629], [13.351233, 38.1157001], [13.3513066, 38.115714]]}}, {"type": "Feature", "properties": {"osm_id": "49249233", "highway": "tertiary", "nome": "Corso Tukory", "lunghezza_m": 45.69, "betweenness_edge": 0.03188425, "u_node": 3797, "v_node": 3798, "circoscrizione": "III", "quartiere": "Oreto - Stazione", "upl": "Oreto Perez"}, "geometry": {"type": "LineString", "coordinates": [[13.3593055, 38.1088127], [13.3595705, 38.108861], [13.3598135, 38.1089042]]}}, {"type": "Feature", "properties": {"osm_id": "86121250", "highway": "tertiary", "nome": "Corso Tukory", "lunghezza_m": 77.94, "betweenness_edge": 0.00023949, "u_node": 5979, "v_node": 5977, "circoscrizione": "III", "quartiere": "Oreto - Stazione", "upl": "Oreto Perez"}, "geometry": {"type": "LineString", "coordinates": [[13.3599106, 38.1087718], [13.3607994, 38.1087638]]}}, {"type": "Feature", "properties": {"osm_id": "86121250", "highway": "tertiary", "nome": "Corso Tukory", "lunghezza_m": 95.39, "betweenness_edge": 7.693e-05, "u_node": 5977, "v_node": 5980, "circoscrizione": "III", "quartiere": "Oreto - Stazione", "upl": "Oreto Perez"}, "geometry": {"type": "LineString", "coordinates": [[13.3607994, 38.1087638], [13.3609376, 38.1087705], [13.3610142, 38.1087864], [13.361077, 38.1088045], [13.3611442, 38.1088364], [13.3616447, 38.10910230000001], [13.3617485, 38.1091526]]}}, {"type": "Feature", "properties": {"osm_id": "86121290", "highway": "tertiary", "nome": "Corso Tukory", "lunghezza_m": 118.51, "betweenness_edge": 0.04021937, "u_node": 6023, "v_node": 5957, "circoscrizione": "I", "quartiere": "Palazzo Reale - Monte di Pietà", "upl": "Palazzo Reale o Albergaria"}, "geometry": {"type": "LineString", "coordinates": [[13.3639784, 38.1098833], [13.363659, 38.109841], [13.3635443, 38.1098273], [13.3634391, 38.1098106], [13.363329, 38.109781], [13.363229, 38.1097472], [13.362701, 38.109559]]}}, {"type": "Feature", "properties": {"osm_id": "86121290", "highway": "tertiary", "nome": "Corso Tukory", "lunghezza_m": 93.21, "betweenness_edge": 0.04131192, "u_node": 5957, "v_node": 6008, "circoscrizione": "I", "quartiere": "Palazzo Reale - Monte di Pietà", "upl": "Palazzo Reale o Albergaria"}, "geometry": {"type": "LineString", "coordinates": [[13.362701, 38.109559], [13.3618759, 38.10927179999999], [13.3618018, 38.109248], [13.3617636, 38.1092375], [13.3617241, 38.109229]]}}, {"type": "Feature", "properties": {"osm_id": "86121290", "highway": "tertiary", "nome": "Corso Tukory", "lunghezza_m": 3.47, "betweenness_edge": 0.06042475, "u_node": 6008, "v_node": 6024, "circoscrizione": "I", "quartiere": "Palazzo Reale - Monte di Pietà", "upl": "Palazzo Reale o Albergaria"}, "geometry": {"type": "LineString", "coordinates": [[13.3617241, 38.109229], [13.3616855, 38.1092222]]}}, {"type": "Feature", "properties": {"osm_id": "86121290", "highway": "tertiary", "nome": "Corso Tukory", "lunghezza_m": 100.9, "betweenness_edge": 0.03057147, "u_node": 6024, "v_node": 5978, "circoscrizione": "I", "quartiere": "Palazzo Reale - Monte di Pietà", "upl": "Palazzo Reale o Albergaria"}, "geometry": {"type": "LineString", "coordinates": [[13.3616855, 38.1092222], [13.3616018, 38.1092084], [13.36056, 38.109033]]}}, {"type": "Feature", "properties": {"osm_id": "86121290", "highway": "tertiary", "nome": "Corso Tukory", "lunghezza_m": 6.58, "betweenness_edge": 0.03082609, "u_node": 5978, "v_node": 6025, "circoscrizione": "III", "quartiere": "Oreto - Stazione", "upl": "Oreto Perez"}, "geometry": {"type": "LineString", "coordinates": [[13.36056, 38.109033], [13.3604867, 38.1090205]]}}, {"type": "Feature", "properties": {"osm_id": "86121290", "highway": "tertiary", "nome": "Corso Tukory", "lunghezza_m": 60.43, "betweenness_edge": 0.03000442, "u_node": 6025, "v_node": 3798, "circoscrizione": "III", "quartiere": "Oreto - Stazione", "upl": "Oreto Perez"}, "geometry": {"type": "LineString", "coordinates": [[13.3604867, 38.1090205], [13.3598135, 38.1089042]]}}, {"type": "Feature", "properties": {"osm_id": "86530670", "highway": "residential", "nome": "Via Giordano Giuseppe Bruno", "lunghezza_m": 51.43, "betweenness_edge": 0.00010091, "u_node": 8408, "v_node": 8409, "circoscrizione": "I", "quartiere": "Tribunali-Castellammare", "upl": "Tribunali o Kalsa"}, "geometry": {"type": "LineString", "coordinates": [[13.3669092, 38.11239650000001], [13.367119, 38.1119638]]}}, {"type": "Feature", "properties": {"osm_id": "86530678", "highway": "residential", "nome": "Via Montesanto", "lunghezza_m": 66.08, "betweenness_edge": 0.00279269, "u_node": 8413, "v_node": 8414, "circoscrizione": "I", "quartiere": "Tribunali-Castellammare", "upl": "Tribunali o Kalsa"}, "geometry": {"type": "LineString", "coordinates": [[13.36537, 38.1129536], [13.3654907, 38.1129774], [13.3658148, 38.1128593], [13.3660675, 38.1127792]]}}, {"type": "Feature", "properties": {"osm_id": "86530678", "highway": "residential", "nome": "Via Montesanto", "lunghezza_m": 17.2, "betweenness_edge": 0.00264098, "u_node": 8414, "v_node": 8415, "circoscrizione": "I", "quartiere": "Tribunali-Castellammare", "upl": "Tribunali o Kalsa"}, "geometry": {"type": "LineString", "coordinates": [[13.3660675, 38.1127792], [13.3662524, 38.1127274]]}}, {"type": "Feature", "properties": {"osm_id": "86530678", "highway": "residential", "nome": "Via Montesanto", "lunghezza_m": 80.12, "betweenness_edge": 0.00257033, "u_node": 8415, "v_node": 8416, "circoscrizione": "I", "quartiere": "Tribunali-Castellammare", "upl": "Tribunali o Kalsa"}, "geometry": {"type": "LineString", "coordinates": [[13.3662524, 38.1127274], [13.3669757, 38.1125458], [13.3670483, 38.1124378]]}}, {"type": "Feature", "properties": {"osm_id": "86530696", "highway": "residential", "nome": "Via Trento", "lunghezza_m": 71.84, "betweenness_edge": 5.295e-05, "u_node": 8429, "v_node": 8430, "circoscrizione": "I", "quartiere": "Tribunali-Castellammare", "upl": "Tribunali o Kalsa"}, "geometry": {"type": "LineString", "coordinates": [[13.3662427, 38.1112055], [13.3663457, 38.1112428], [13.3669874, 38.1114754]]}}, {"type": "Feature", "properties": {"osm_id": "86530714", "highway": "residential", "nome": "Via Divisi", "lunghezza_m": 62.12, "betweenness_edge": 0.00595047, "u_node": 8450, "v_node": 8451, "circoscrizione": "I", "quartiere": "Tribunali-Castellammare", "upl": "Tribunali o Kalsa"}, "geometry": {"type": "LineString", "coordinates": [[13.3658497, 38.1134574], [13.3659773, 38.1135552], [13.3662837, 38.1138068], [13.3663464, 38.1138564]]}}, {"type": "Feature", "properties": {"osm_id": "86530714", "highway": "residential", "nome": "Via Divisi", "lunghezza_m": 20.49, "betweenness_edge": 0.00610947, "u_node": 8451, "v_node": 8443, "circoscrizione": "I", "quartiere": "Tribunali-Castellammare", "upl": "Tribunali o Kalsa"}, "geometry": {"type": "LineString", "coordinates": [[13.3663464, 38.1138564], [13.366427, 38.1140297]]}}, {"type": "Feature", "properties": {"osm_id": "86530856", "highway": "residential", "nome": "Via Gorizia", "lunghezza_m": 32.55, "betweenness_edge": 0.00275844, "u_node": 8540, "v_node": 8541, "circoscrizione": "I", "quartiere": "Tribunali-Castellammare", "upl": "Tribunali o Kalsa"}, "geometry": {"type": "LineString", "coordinates": [[13.3674481, 38.1125584], [13.3671014, 38.1124536]]}}, {"type": "Feature", "properties": {"osm_id": "86530856", "highway": "residential", "nome": "Via Gorizia", "lunghezza_m": 4.98, "betweenness_edge": 0.00280825, "u_node": 8541, "v_node": 8416, "circoscrizione": "I", "quartiere": "Tribunali-Castellammare", "upl": "Tribunali o Kalsa"}, "geometry": {"type": "LineString", "coordinates": [[13.3671014, 38.1124536], [13.3670483, 38.1124378]]}}, {"type": "Feature", "properties": {"osm_id": "86530856", "highway": "residential", "nome": "Via Gorizia", "lunghezza_m": 13.03, "betweenness_edge": 0.00046885, "u_node": 8416, "v_node": 8408, "circoscrizione": "I", "quartiere": "Tribunali-Castellammare", "upl": "Tribunali o Kalsa"}, "geometry": {"type": "LineString", "coordinates": [[13.3670483, 38.1124378], [13.3669092, 38.11239650000001]]}}, {"type": "Feature", "properties": {"osm_id": "86530856", "highway": "residential", "nome": "Via Gorizia", "lunghezza_m": 54.25, "betweenness_edge": 0.00031885, "u_node": 8408, "v_node": 8477, "circoscrizione": "I", "quartiere": "Tribunali-Castellammare", "upl": "Tribunali o Kalsa"}, "geometry": {"type": "LineString", "coordinates": [[13.3669092, 38.11239650000001], [13.3663301, 38.1122245]]}}, {"type": "Feature", "properties": {"osm_id": "86530856", "highway": "residential", "nome": "Via Gorizia", "lunghezza_m": 48.92, "betweenness_edge": 0.00024977, "u_node": 8477, "v_node": 8542, "circoscrizione": "I", "quartiere": "Tribunali-Castellammare", "upl": "Tribunali o Kalsa"}, "geometry": {"type": "LineString", "coordinates": [[13.3663301, 38.1122245], [13.3659146, 38.1121011], [13.3658088, 38.1120675]]}}, {"type": "Feature", "properties": {"osm_id": "86530858", "highway": "residential", "nome": "Via Milano", "lunghezza_m": 64.75, "betweenness_edge": 0.00051709, "u_node": 8543, "v_node": 8544, "circoscrizione": "I", "quartiere": "Tribunali-Castellammare", "upl": "Tribunali o Kalsa"}, "geometry": {"type": "LineString", "coordinates": [[13.3660688, 38.111553], [13.3661632, 38.111589], [13.3667316, 38.1118102]]}}, {"type": "Feature", "properties": {"osm_id": "86530858", "highway": "residential", "nome": "Via Milano", "lunghezza_m": 38.01, "betweenness_edge": 0.00027931, "u_node": 8544, "v_node": 8409, "circoscrizione": "I", "quartiere": "Tribunali-Castellammare", "upl": "Tribunali o Kalsa"}, "geometry": {"type": "LineString", "coordinates": [[13.3667316, 38.1118102], [13.367119, 38.1119638]]}}, {"type": "Feature", "properties": {"osm_id": "86530858", "highway": "residential", "nome": "Via Milano", "lunghezza_m": 55.64, "betweenness_edge": 0.00022693, "u_node": 8409, "v_node": 8545, "circoscrizione": "I", "quartiere": "Tribunali-Castellammare", "upl": "Tribunali o Kalsa"}, "geometry": {"type": "LineString", "coordinates": [[13.367119, 38.1119638], [13.367684, 38.112192]]}}, {"type": "Feature", "properties": {"osm_id": "86530910", "highway": "residential", "nome": "Via Alessandro Manzoni", "lunghezza_m": 43.4, "betweenness_edge": 0.00020781, "u_node": 8544, "v_node": 8430, "circoscrizione": "I", "quartiere": "Tribunali-Castellammare", "upl": "Tribunali o Kalsa"}, "geometry": {"type": "LineString", "coordinates": [[13.3667316, 38.1118102], [13.3669874, 38.1114754]]}}, {"type": "Feature", "properties": {"osm_id": "86530910", "highway": "residential", "nome": "Via Alessandro Manzoni", "lunghezza_m": 58.4, "betweenness_edge": 0.00020595, "u_node": 8430, "v_node": 142, "circoscrizione": "I", "quartiere": "Tribunali-Castellammare", "upl": "Tribunali o Kalsa"}, "geometry": {"type": "LineString", "coordinates": [[13.3669874, 38.1114754], [13.3673389, 38.1110284]]}}, {"type": "Feature", "properties": {"osm_id": "86544721", "highway": "residential", "nome": "Via Fiume", "lunghezza_m": 54.8, "betweenness_edge": 9.862e-05, "u_node": 8592, "v_node": 8593, "circoscrizione": "I", "quartiere": "Tribunali-Castellammare", "upl": "Tribunali o Kalsa"}, "geometry": {"type": "LineString", "coordinates": [[13.3655775, 38.1125264], [13.3650234, 38.1122981]]}}, {"type": "Feature", "properties": {"osm_id": "86544721", "highway": "residential", "nome": "Via Fiume", "lunghezza_m": 49.37, "betweenness_edge": 6.48e-05, "u_node": 8593, "v_node": 8594, "circoscrizione": "I", "quartiere": "Tribunali-Castellammare", "upl": "Tribunali o Kalsa"}, "geometry": {"type": "LineString", "coordinates": [[13.3650234, 38.1122981], [13.3645248, 38.1120914]]}}, {"type": "Feature", "properties": {"osm_id": "86544721", "highway": "residential", "nome": "Via Fiume", "lunghezza_m": 25.52, "betweenness_edge": 0.000155, "u_node": 8594, "v_node": 8595, "circoscrizione": "I", "quartiere": "Tribunali-Castellammare", "upl": "Tribunali o Kalsa"}, "geometry": {"type": "LineString", "coordinates": [[13.3645248, 38.1120914], [13.364267, 38.1119846]]}}, {"type": "Feature", "properties": {"osm_id": "86544721", "highway": "residential", "nome": "Via Fiume", "lunghezza_m": 32.34, "betweenness_edge": 7.136e-05, "u_node": 8595, "v_node": 8596, "circoscrizione": "I", "quartiere": "Tribunali-Castellammare", "upl": "Tribunali o Kalsa"}, "geometry": {"type": "LineString", "coordinates": [[13.364267, 38.1119846], [13.3639404, 38.1118492]]}}, {"type": "Feature", "properties": {"osm_id": "86544723", "highway": "residential", "nome": "Via Divisi", "lunghezza_m": 86.68, "betweenness_edge": 0.02815057, "u_node": 8597, "v_node": 8598, "circoscrizione": "I", "quartiere": "Tribunali-Castellammare", "upl": "Tribunali o Kalsa"}, "geometry": {"type": "LineString", "coordinates": [[13.3635071, 38.1125192], [13.3635673, 38.112545], [13.3641735, 38.1127448], [13.3644196, 38.1128187]]}}, {"type": "Feature", "properties": {"osm_id": "86544723", "highway": "residential", "nome": "Via Divisi", "lunghezza_m": 13.95, "betweenness_edge": 0.00939271, "u_node": 8598, "v_node": 8581, "circoscrizione": "I", "quartiere": "Tribunali-Castellammare", "upl": "Tribunali o Kalsa"}, "geometry": {"type": "LineString", "coordinates": [[13.3644196, 38.1128187], [13.3645699, 38.1128598]]}}, {"type": "Feature", "properties": {"osm_id": "86544723", "highway": "residential", "nome": "Via Divisi", "lunghezza_m": 70.22, "betweenness_edge": 0.00522172, "u_node": 8581, "v_node": 6054, "circoscrizione": "I", "quartiere": "Tribunali-Castellammare", "upl": "Tribunali o Kalsa"}, "geometry": {"type": "LineString", "coordinates": [[13.3645699, 38.1128598], [13.3648641, 38.112979299999985], [13.3651861, 38.1131514], [13.3652246, 38.1131678], [13.3652615, 38.1131733]]}}, {"type": "Feature", "properties": {"osm_id": "86544724", "highway": "residential", "nome": "Via Pavia", "lunghezza_m": 39.37, "betweenness_edge": 0.00036038, "u_node": 8599, "v_node": 8600, "circoscrizione": "I", "quartiere": "Tribunali-Castellammare", "upl": "Tribunali o Kalsa"}, "geometry": {"type": "LineString", "coordinates": [[13.3655074, 38.1113315], [13.3657217, 38.1110198]]}}, {"type": "Feature", "properties": {"osm_id": "86544731", "highway": "residential", "nome": "Via Torino", "lunghezza_m": 18.01, "betweenness_edge": 0.00070263, "u_node": 8543, "v_node": 8608, "circoscrizione": "I", "quartiere": "Tribunali-Castellammare", "upl": "Tribunali o Kalsa"}, "geometry": {"type": "LineString", "coordinates": [[13.3660688, 38.111553], [13.3659897, 38.1115242], [13.3658818, 38.1114858]]}}, {"type": "Feature", "properties": {"osm_id": "86544731", "highway": "residential", "nome": "Via Torino", "lunghezza_m": 16.96, "betweenness_edge": 0.00051153, "u_node": 8608, "v_node": 8580, "circoscrizione": "I", "quartiere": "Tribunali-Castellammare", "upl": "Tribunali o Kalsa"}, "geometry": {"type": "LineString", "coordinates": [[13.3658818, 38.1114858], [13.3657066, 38.1114211]]}}, {"type": "Feature", "properties": {"osm_id": "86544731", "highway": "residential", "nome": "Via Torino", "lunghezza_m": 20.1, "betweenness_edge": 0.00034839, "u_node": 8580, "v_node": 8599, "circoscrizione": "I", "quartiere": "Tribunali-Castellammare", "upl": "Tribunali o Kalsa"}, "geometry": {"type": "LineString", "coordinates": [[13.3657066, 38.1114211], [13.3655074, 38.1113315]]}}, {"type": "Feature", "properties": {"osm_id": "86544731", "highway": "residential", "nome": "Via Torino", "lunghezza_m": 39.52, "betweenness_edge": 9.363e-05, "u_node": 8599, "v_node": 8609, "circoscrizione": "I", "quartiere": "Tribunali-Castellammare", "upl": "Tribunali o Kalsa"}, "geometry": {"type": "LineString", "coordinates": [[13.3655074, 38.1113315], [13.3651122, 38.1111603]]}}, {"type": "Feature", "properties": {"osm_id": "86544731", "highway": "residential", "nome": "Via Torino", "lunghezza_m": 3.67, "betweenness_edge": 0.00021409, "u_node": 8609, "v_node": 8610, "circoscrizione": "I", "quartiere": "Tribunali-Castellammare", "upl": "Tribunali o Kalsa"}, "geometry": {"type": "LineString", "coordinates": [[13.3651122, 38.1111603], [13.3650755, 38.1111444]]}}, {"type": "Feature", "properties": {"osm_id": "86544731", "highway": "residential", "nome": "Via Torino", "lunghezza_m": 53.11, "betweenness_edge": 7.136e-05, "u_node": 8610, "v_node": 8611, "circoscrizione": "I", "quartiere": "Tribunali-Castellammare", "upl": "Tribunali o Kalsa"}, "geometry": {"type": "LineString", "coordinates": [[13.3650755, 38.1111444], [13.3645807, 38.1109301], [13.3645444, 38.1109144]]}}, {"type": "Feature", "properties": {"osm_id": "86552808", "highway": "residential", "nome": "Via Bari", "lunghezza_m": 53.89, "betweenness_edge": 0.00992735, "u_node": 8651, "v_node": 8652, "circoscrizione": "I", "quartiere": "Tribunali-Castellammare", "upl": "Castellammare o Loggia"}, "geometry": {"type": "LineString", "coordinates": [[13.362646, 38.1179874], [13.3620632, 38.1181415]]}}, {"type": "Feature", "properties": {"osm_id": "86565240", "highway": "residential", "nome": "Via Antonio Gagini", "lunghezza_m": 52.75, "betweenness_edge": 0.00150161, "u_node": 8707, "v_node": 8708, "circoscrizione": "I", "quartiere": "Tribunali-Castellammare", "upl": "Castellammare o Loggia"}, "geometry": {"type": "LineString", "coordinates": [[13.3615249, 38.1216998], [13.3616545, 38.1212357]]}}, {"type": "Feature", "properties": {"osm_id": "86565240", "highway": "residential", "nome": "Via Antonio Gagini", "lunghezza_m": 39.31, "betweenness_edge": 0.00220595, "u_node": 8708, "v_node": 8709, "circoscrizione": "I", "quartiere": "Tribunali-Castellammare", "upl": "Castellammare o Loggia"}, "geometry": {"type": "LineString", "coordinates": [[13.3616545, 38.1212357], [13.3617512, 38.1208898]]}}, {"type": "Feature", "properties": {"osm_id": "86565240", "highway": "residential", "nome": "Via Antonio Gagini", "lunghezza_m": 18.11, "betweenness_edge": 0.0022001, "u_node": 8709, "v_node": 8710, "circoscrizione": "I", "quartiere": "Tribunali-Castellammare", "upl": "Castellammare o Loggia"}, "geometry": {"type": "LineString", "coordinates": [[13.3617512, 38.1208898], [13.3617942, 38.1207302]]}}, {"type": "Feature", "properties": {"osm_id": "86565240", "highway": "residential", "nome": "Via Antonio Gagini", "lunghezza_m": 45.35, "betweenness_edge": 0.00014144, "u_node": 8710, "v_node": 8711, "circoscrizione": "I", "quartiere": "Tribunali-Castellammare", "upl": "Castellammare o Loggia"}, "geometry": {"type": "LineString", "coordinates": [[13.3617942, 38.1207302], [13.3620301, 38.12036650000001]]}}, {"type": "Feature", "properties": {"osm_id": "86565240", "highway": "residential", "nome": "Via Antonio Gagini", "lunghezza_m": 11.75, "betweenness_edge": 0.00027389, "u_node": 8711, "v_node": 8712, "circoscrizione": "I", "quartiere": "Tribunali-Castellammare", "upl": "Castellammare o Loggia"}, "geometry": {"type": "LineString", "coordinates": [[13.3620301, 38.12036650000001], [13.3620889, 38.1202714]]}}, {"type": "Feature", "properties": {"osm_id": "86565240", "highway": "residential", "nome": "Via Antonio Gagini", "lunghezza_m": 97.44, "betweenness_edge": 7.65e-05, "u_node": 8712, "v_node": 8713, "circoscrizione": "I", "quartiere": "Tribunali-Castellammare", "upl": "Castellammare o Loggia"}, "geometry": {"type": "LineString", "coordinates": [[13.3620889, 38.1202714], [13.3625649, 38.1195603], [13.3626145, 38.119498]]}}, {"type": "Feature", "properties": {"osm_id": "86565240", "highway": "residential", "nome": "Via Antonio Gagini", "lunghezza_m": 74.05, "betweenness_edge": 7.136e-05, "u_node": 8713, "v_node": 8714, "circoscrizione": "I", "quartiere": "Tribunali-Castellammare", "upl": "Castellammare o Loggia"}, "geometry": {"type": "LineString", "coordinates": [[13.3626145, 38.119498], [13.3629617, 38.1191047], [13.3629951, 38.1190534], [13.3629083, 38.11901189999998], [13.3628758, 38.1190547]]}}, {"type": "Feature", "properties": {"osm_id": "86565248", "highway": "residential", "nome": "Via Castello", "lunghezza_m": 107.58, "betweenness_edge": 0.00040491, "u_node": 8690, "v_node": 8705, "circoscrizione": "I", "quartiere": "Tribunali-Castellammare", "upl": "Castellammare o Loggia"}, "geometry": {"type": "LineString", "coordinates": [[13.3640256, 38.1205274], [13.3651091, 38.1209823]]}}, {"type": "Feature", "properties": {"osm_id": "86565270", "highway": "residential", "nome": "Via San Sebastiano", "lunghezza_m": 99.11, "betweenness_edge": 0.00139913, "u_node": 4588, "v_node": 8722, "circoscrizione": "I", "quartiere": "Tribunali-Castellammare", "upl": "Castellammare o Loggia"}, "geometry": {"type": "LineString", "coordinates": [[13.3664324, 38.1202603], [13.3661851, 38.1201299], [13.3660209, 38.119678], [13.3659247, 38.1195061]]}}, {"type": "Feature", "properties": {"osm_id": "86565299", "highway": "residential", "nome": "Via Fratelli Cianciolo", "lunghezza_m": 78.96, "betweenness_edge": 8.649e-05, "u_node": 4587, "v_node": 8704, "circoscrizione": "I", "quartiere": "Tribunali-Castellammare", "upl": "Castellammare o Loggia"}, "geometry": {"type": "LineString", "coordinates": [[13.3662356, 38.1206447], [13.3656976, 38.1204229], [13.3654372, 38.1203155]]}}, {"type": "Feature", "properties": {"osm_id": "86565299", "highway": "residential", "nome": "Via Fratelli Cianciolo", "lunghezza_m": 15.29, "betweenness_edge": 0.00014272, "u_node": 8704, "v_node": 8769, "circoscrizione": "I", "quartiere": "Tribunali-Castellammare", "upl": "Castellammare o Loggia"}, "geometry": {"type": "LineString", "coordinates": [[13.3654372, 38.1203155], [13.3652811, 38.120254]]}}, {"type": "Feature", "properties": {"osm_id": "86565317", "highway": "residential", "nome": "Piazza Cassarelli", "lunghezza_m": 56.74, "betweenness_edge": 0.0013379, "u_node": 8787, "v_node": 8741, "circoscrizione": "I", "quartiere": "Tribunali-Castellammare", "upl": "Castellammare o Loggia"}, "geometry": {"type": "LineString", "coordinates": [[13.3652463, 38.1189573], [13.3653038, 38.1188693], [13.3657768, 38.11904339999999]]}}, {"type": "Feature", "properties": {"osm_id": "86623799", "highway": "residential", "nome": "Via Alberto Favara", "lunghezza_m": 60.07, "betweenness_edge": 0.00133219, "u_node": 8796, "v_node": 8797, "circoscrizione": "I", "quartiere": "Palazzo Reale - Monte di Pietà", "upl": "Monte di Pietà  o Seralcadi"}, "geometry": {"type": "LineString", "coordinates": [[13.3568978, 38.1195591], [13.3569381, 38.1194637], [13.3571146, 38.1190457]]}}, {"type": "Feature", "properties": {"osm_id": "86623837", "highway": "residential", "nome": "Via Alessandro Scarlatti", "lunghezza_m": 47.72, "betweenness_edge": 0.00298137, "u_node": 8827, "v_node": 8828, "circoscrizione": "I", "quartiere": "Palazzo Reale - Monte di Pietà", "upl": "Monte di Pietà  o Seralcadi"}, "geometry": {"type": "LineString", "coordinates": [[13.3577078, 38.1192601], [13.3581979, 38.11944720000001]]}}, {"type": "Feature", "properties": {"osm_id": "86623935", "highway": "residential", "nome": "Via Gaetano Donizetti", "lunghezza_m": 79.38, "betweenness_edge": 6.094e-05, "u_node": 8869, "v_node": 8890, "circoscrizione": "I", "quartiere": "Palazzo Reale - Monte di Pietà", "upl": "Monte di Pietà  o Seralcadi"}, "geometry": {"type": "LineString", "coordinates": [[13.3583663, 38.1180455], [13.3580121, 38.1187037]]}}, {"type": "Feature", "properties": {"osm_id": "86623935", "highway": "residential", "nome": "Via Gaetano Donizetti", "lunghezza_m": 67.27, "betweenness_edge": 0.00100921, "u_node": 8890, "v_node": 8827, "circoscrizione": "I", "quartiere": "Palazzo Reale - Monte di Pietà", "upl": "Monte di Pietà  o Seralcadi"}, "geometry": {"type": "LineString", "coordinates": [[13.3580121, 38.1187037], [13.3577078, 38.1192601]]}}, {"type": "Feature", "properties": {"osm_id": "86624026", "highway": "residential", "nome": "Via Gaetano Donizetti", "lunghezza_m": 58.23, "betweenness_edge": 0.00112824, "u_node": 8827, "v_node": 8944, "circoscrizione": "I", "quartiere": "Palazzo Reale - Monte di Pietà", "upl": "Monte di Pietà  o Seralcadi"}, "geometry": {"type": "LineString", "coordinates": [[13.3577078, 38.1192601], [13.3575008, 38.1196165], [13.3574308, 38.119737]]}}, {"type": "Feature", "properties": {"osm_id": "86624135", "highway": "residential", "nome": "Via Ugo Antonio Amico", "lunghezza_m": 68.72, "betweenness_edge": 7.136e-05, "u_node": 8980, "v_node": 8929, "circoscrizione": "I", "quartiere": "Palazzo Reale - Monte di Pietà", "upl": "Monte di Pietà  o Seralcadi"}, "geometry": {"type": "LineString", "coordinates": [[13.3592412, 38.11912], [13.3592029, 38.1191054], [13.3585354, 38.1188508]]}}, {"type": "Feature", "properties": {"osm_id": "86624135", "highway": "residential", "nome": "Via Ugo Antonio Amico", "lunghezza_m": 48.7, "betweenness_edge": 0.00112167, "u_node": 8929, "v_node": 8890, "circoscrizione": "I", "quartiere": "Palazzo Reale - Monte di Pietà", "upl": "Monte di Pietà  o Seralcadi"}, "geometry": {"type": "LineString", "coordinates": [[13.3585354, 38.1188508], [13.3580121, 38.1187037]]}}, {"type": "Feature", "properties": {"osm_id": "86624135", "highway": "residential", "nome": "Via Ugo Antonio Amico", "lunghezza_m": 77.68, "betweenness_edge": 0.00021908, "u_node": 8890, "v_node": 8882, "circoscrizione": "I", "quartiere": "Palazzo Reale - Monte di Pietà", "upl": "Monte di Pietà  o Seralcadi"}, "geometry": {"type": "LineString", "coordinates": [[13.3580121, 38.1187037], [13.3577281, 38.11862820000001], [13.3571597, 38.1185145]]}}, {"type": "Feature", "properties": {"osm_id": "86624164", "highway": "residential", "nome": "Via Gioacchino Rossini", "lunghezza_m": 72.5, "betweenness_edge": 0.00079041, "u_node": 8828, "v_node": 8929, "circoscrizione": "I", "quartiere": "Palazzo Reale - Monte di Pietà", "upl": "Monte di Pietà  o Seralcadi"}, "geometry": {"type": "LineString", "coordinates": [[13.3581979, 38.11944720000001], [13.3585354, 38.1188508]]}}, {"type": "Feature", "properties": {"osm_id": "203887200", "highway": "residential", "nome": "Via Castello", "lunghezza_m": 38.79, "betweenness_edge": 0.00028987, "u_node": 8705, "v_node": 9910, "circoscrizione": "I", "quartiere": "Tribunali-Castellammare", "upl": "Castellammare o Loggia"}, "geometry": {"type": "LineString", "coordinates": [[13.3651091, 38.1209823], [13.3654988, 38.12114779999999]]}}, {"type": "Feature", "properties": {"osm_id": "203887200", "highway": "residential", "nome": "Via Castello", "lunghezza_m": 29.67, "betweenness_edge": 0.00034782, "u_node": 9910, "v_node": 9911, "circoscrizione": "I", "quartiere": "Tribunali-Castellammare", "upl": "Castellammare o Loggia"}, "geometry": {"type": "LineString", "coordinates": [[13.3654988, 38.12114779999999], [13.3657964, 38.121275]]}}, {"type": "Feature", "properties": {"osm_id": "215351085", "highway": "residential", "nome": "Via Bari", "lunghezza_m": 7.38, "betweenness_edge": 0.0110015, "u_node": 8652, "v_node": 8672, "circoscrizione": "I", "quartiere": "Tribunali-Castellammare", "upl": "Castellammare o Loggia"}, "geometry": {"type": "LineString", "coordinates": [[13.3620632, 38.1181415], [13.361979, 38.11814240000001]]}}, {"type": "Feature", "properties": {"osm_id": "215351085", "highway": "residential", "nome": "Via Bari", "lunghezza_m": 72.29, "betweenness_edge": 0.01098951, "u_node": 8672, "v_node": 8639, "circoscrizione": "I", "quartiere": "Tribunali-Castellammare", "upl": "Castellammare o Loggia"}, "geometry": {"type": "LineString", "coordinates": [[13.361979, 38.11814240000001], [13.3611695, 38.1180189]]}}, {"type": "Feature", "properties": {"osm_id": "215351085", "highway": "residential", "nome": "Via Bari", "lunghezza_m": 43.68, "betweenness_edge": 0.01104945, "u_node": 8639, "v_node": 8659, "circoscrizione": "I", "quartiere": "Tribunali-Castellammare", "upl": "Castellammare o Loggia"}, "geometry": {"type": "LineString", "coordinates": [[13.3611695, 38.1180189], [13.3606768, 38.1179604]]}}, {"type": "Feature", "properties": {"osm_id": "215351085", "highway": "residential", "nome": "Via Bari", "lunghezza_m": 34.53, "betweenness_edge": 0.01105117, "u_node": 8659, "v_node": 8661, "circoscrizione": "I", "quartiere": "Tribunali-Castellammare", "upl": "Castellammare o Loggia"}, "geometry": {"type": "LineString", "coordinates": [[13.3606768, 38.1179604], [13.3602866, 38.117918]]}}, {"type": "Feature", "properties": {"osm_id": "215351085", "highway": "residential", "nome": "Via Bari", "lunghezza_m": 21.1, "betweenness_edge": 0.01106772, "u_node": 8661, "v_node": 8845, "circoscrizione": "I", "quartiere": "Tribunali-Castellammare", "upl": "Castellammare o Loggia"}, "geometry": {"type": "LineString", "coordinates": [[13.3602866, 38.117918], [13.3600641, 38.1178455]]}}, {"type": "Feature", "properties": {"osm_id": "280704221", "highway": "tertiary", "nome": "Corso Tukory", "lunghezza_m": 19.83, "betweenness_edge": 0.01141297, "u_node": 272, "v_node": 9814, "circoscrizione": "III", "quartiere": "Oreto - Stazione", "upl": "Oreto Perez"}, "geometry": {"type": "LineString", "coordinates": [[13.3552728, 38.1076928], [13.3554826, 38.1077594]]}}, {"type": "Feature", "properties": {"osm_id": "280704221", "highway": "tertiary", "nome": "Corso Tukory", "lunghezza_m": 85.22, "betweenness_edge": 0.01613887, "u_node": 9814, "v_node": 9897, "circoscrizione": "III", "quartiere": "Oreto - Stazione", "upl": "Oreto Perez"}, "geometry": {"type": "LineString", "coordinates": [[13.3554826, 38.1077594], [13.3561903, 38.1079702], [13.3563728, 38.1080607]]}}, {"type": "Feature", "properties": {"osm_id": "280704221", "highway": "tertiary", "nome": "Corso Tukory", "lunghezza_m": 18.35, "betweenness_edge": 0.02123314, "u_node": 9897, "v_node": 10182, "circoscrizione": "III", "quartiere": "Oreto - Stazione", "upl": "Oreto Perez"}, "geometry": {"type": "LineString", "coordinates": [[13.3563728, 38.1080607], [13.3565554, 38.1081414]]}}, {"type": "Feature", "properties": {"osm_id": "282239133", "highway": "tertiary", "nome": "Corso Tukory", "lunghezza_m": 17.55, "betweenness_edge": 0.02199929, "u_node": 10185, "v_node": 10186, "circoscrizione": "I", "quartiere": "Palazzo Reale - Monte di Pietà", "upl": "Palazzo Reale o Albergaria"}, "geometry": {"type": "LineString", "coordinates": [[13.3569071, 38.1082706], [13.3567129, 38.1082324]]}}, {"type": "Feature", "properties": {"osm_id": "282239133", "highway": "tertiary", "nome": "Corso Tukory", "lunghezza_m": 41.06, "betweenness_edge": 0.02196503, "u_node": 10186, "v_node": 10187, "circoscrizione": "I", "quartiere": "Palazzo Reale - Monte di Pietà", "upl": "Palazzo Reale o Albergaria"}, "geometry": {"type": "LineString", "coordinates": [[13.3567129, 38.1082324], [13.356548, 38.1082093], [13.3562481, 38.1082269]]}}, {"type": "Feature", "properties": {"osm_id": "282239143", "highway": "secondary", "nome": "Corso Tukory", "lunghezza_m": 17.18, "betweenness_edge": 0.02631756, "u_node": 9792, "v_node": 10188, "circoscrizione": "IV", "quartiere": "Montegrappa - S. Rosalia", "upl": "Montegrappa"}, "geometry": {"type": "LineString", "coordinates": [[13.3550102, 38.107715099999986], [13.3551822, 38.1077893]]}}, {"type": "Feature", "properties": {"osm_id": "282239143", "highway": "secondary", "nome": "Corso Tukory", "lunghezza_m": 74.41, "betweenness_edge": 0.01069535, "u_node": 10188, "v_node": 10189, "circoscrizione": "III", "quartiere": "Oreto - Stazione", "upl": "Oreto Perez"}, "geometry": {"type": "LineString", "coordinates": [[13.3551822, 38.1077893], [13.3553043, 38.1078359], [13.355458, 38.1078862], [13.3559737, 38.1080294]]}}, {"type": "Feature", "properties": {"osm_id": "357211325", "highway": "tertiary", "nome": "Corso Tukory", "lunghezza_m": 13.43, "betweenness_edge": 0.03676971, "u_node": 10182, "v_node": 5971, "circoscrizione": "III", "quartiere": "Oreto - Stazione", "upl": "Oreto Perez"}, "geometry": {"type": "LineString", "coordinates": [[13.3565554, 38.1081414], [13.3566978, 38.1081859]]}}, {"type": "Feature", "properties": {"osm_id": "357211325", "highway": "tertiary", "nome": "Corso Tukory", "lunghezza_m": 20.62, "betweenness_edge": 0.01372897, "u_node": 5971, "v_node": 10185, "circoscrizione": "III", "quartiere": "Oreto - Stazione", "upl": "Oreto Perez"}, "geometry": {"type": "LineString", "coordinates": [[13.3566978, 38.1081859], [13.3569071, 38.1082706]]}}, {"type": "Feature", "properties": {"osm_id": "357213657", "highway": "tertiary", "nome": "Corso Tukory", "lunghezza_m": 12.47, "betweenness_edge": 0.02460958, "u_node": 10189, "v_node": 10593, "circoscrizione": "I", "quartiere": "Palazzo Reale - Monte di Pietà", "upl": "Palazzo Reale o Albergaria"}, "geometry": {"type": "LineString", "coordinates": [[13.3559737, 38.1080294], [13.3560913, 38.1080563], [13.3561103, 38.1080606]]}}, {"type": "Feature", "properties": {"osm_id": "357216426", "highway": "secondary", "nome": "Corso Tukory", "lunghezza_m": 46.56, "betweenness_edge": 0.0490319, "u_node": 9492, "v_node": 10595, "circoscrizione": "I", "quartiere": "Palazzo Reale - Monte di Pietà", "upl": "Palazzo Reale o Albergaria"}, "geometry": {"type": "LineString", "coordinates": [[13.3559053, 38.108175], [13.3557917, 38.1081457], [13.3553957, 38.1080573]]}}, {"type": "Feature", "properties": {"osm_id": "361705664", "highway": "tertiary", "nome": "Corso Tukory", "lunghezza_m": 40.83, "betweenness_edge": 0.03567858, "u_node": 10185, "v_node": 10631, "circoscrizione": "III", "quartiere": "Oreto - Stazione", "upl": "Oreto Perez"}, "geometry": {"type": "LineString", "coordinates": [[13.3569071, 38.1082706], [13.3572174, 38.108354], [13.357349, 38.1083864]]}}, {"type": "Feature", "properties": {"osm_id": "361705664", "highway": "tertiary", "nome": "Corso Tukory", "lunghezza_m": 64.44, "betweenness_edge": 0.02863127, "u_node": 10631, "v_node": 6030, "circoscrizione": "III", "quartiere": "Oreto - Stazione", "upl": "Oreto Perez"}, "geometry": {"type": "LineString", "coordinates": [[13.357349, 38.1083864], [13.3577812, 38.1084953], [13.3580489, 38.1085634]]}}, {"type": "Feature", "properties": {"osm_id": "361705664", "highway": "tertiary", "nome": "Corso Tukory", "lunghezza_m": 113.61, "betweenness_edge": 0.028614, "u_node": 6030, "v_node": 3797, "circoscrizione": "I", "quartiere": "Palazzo Reale - Monte di Pietà", "upl": "Palazzo Reale o Albergaria"}, "geometry": {"type": "LineString", "coordinates": [[13.3580489, 38.1085634], [13.3593055, 38.1088127]]}}, {"type": "Feature", "properties": {"osm_id": "389248414", "highway": "secondary", "nome": "Corso Tukory", "lunghezza_m": 7.9, "betweenness_edge": 0.03362121, "u_node": 10595, "v_node": 9264, "circoscrizione": "I", "quartiere": "Palazzo Reale - Monte di Pietà", "upl": "Palazzo Reale o Albergaria"}, "geometry": {"type": "LineString", "coordinates": [[13.3553957, 38.1080573], [13.3553094, 38.108037]]}}, {"type": "Feature", "properties": {"osm_id": "389248414", "highway": "secondary", "nome": "Corso Tukory", "lunghezza_m": 16.72, "betweenness_edge": 0.03366688, "u_node": 9264, "v_node": 9485, "circoscrizione": "I", "quartiere": "Palazzo Reale - Monte di Pietà", "upl": "Palazzo Reale o Albergaria"}, "geometry": {"type": "LineString", "coordinates": [[13.3553094, 38.108037], [13.3552132, 38.10801879999999], [13.3551615, 38.108015899999984], [13.3551241, 38.108027]]}}, {"type": "Feature", "properties": {"osm_id": "440966525", "highway": "residential", "nome": "Via Fratelli Cianciolo", "lunghezza_m": 16.75, "betweenness_edge": 7.136e-05, "u_node": 8769, "v_node": 11322, "circoscrizione": "I", "quartiere": "Tribunali-Castellammare", "upl": "Castellammare o Loggia"}, "geometry": {"type": "LineString", "coordinates": [[13.3652811, 38.120254], [13.3651128, 38.1203255]]}}, {"type": "Feature", "properties": {"osm_id": "682460119", "highway": "tertiary", "nome": "Corso Tukory", "lunghezza_m": 40.05, "betweenness_edge": 0.02475915, "u_node": 10593, "v_node": 10182, "circoscrizione": "I", "quartiere": "Palazzo Reale - Monte di Pietà", "upl": "Palazzo Reale o Albergaria"}, "geometry": {"type": "LineString", "coordinates": [[13.3561103, 38.1080606], [13.3564683, 38.1081256], [13.3565554, 38.1081414]]}}, {"type": "Feature", "properties": {"osm_id": "682460120", "highway": "tertiary", "nome": "Corso Tukory", "lunghezza_m": 30.61, "betweenness_edge": 0.02300635, "u_node": 10187, "v_node": 9492, "circoscrizione": "I", "quartiere": "Palazzo Reale - Monte di Pietà", "upl": "Palazzo Reale o Albergaria"}, "geometry": {"type": "LineString", "coordinates": [[13.3562481, 38.1082269], [13.3560418, 38.1081957], [13.3559053, 38.108175]]}}, {"type": "Feature", "properties": {"osm_id": "683213434", "highway": "residential", "nome": "Via Alessandro Scarlatti", "lunghezza_m": 32.26, "betweenness_edge": 0.00284579, "u_node": 8797, "v_node": 12146, "circoscrizione": "I", "quartiere": "Palazzo Reale - Monte di Pietà", "upl": "Monte di Pietà  o Seralcadi"}, "geometry": {"type": "LineString", "coordinates": [[13.3571146, 38.1190457], [13.3574492, 38.1191666]]}}, {"type": "Feature", "properties": {"osm_id": "683213434", "highway": "residential", "nome": "Via Alessandro Scarlatti", "lunghezza_m": 24.94, "betweenness_edge": 0.00278413, "u_node": 12146, "v_node": 8827, "circoscrizione": "I", "quartiere": "Palazzo Reale - Monte di Pietà", "upl": "Monte di Pietà  o Seralcadi"}, "geometry": {"type": "LineString", "coordinates": [[13.3574492, 38.1191666], [13.3577078, 38.1192601]]}}, {"type": "Feature", "properties": {"osm_id": "683213435", "highway": "residential", "nome": "Via Alberto Favara", "lunghezza_m": 25.35, "betweenness_edge": 0.00402583, "u_node": 8883, "v_node": 8797, "circoscrizione": "I", "quartiere": "Palazzo Reale - Monte di Pietà", "upl": "Monte di Pietà  o Seralcadi"}, "geometry": {"type": "LineString", "coordinates": [[13.3571424, 38.1188183], [13.3571146, 38.1190457]]}}, {"type": "Feature", "properties": {"osm_id": "760740831", "highway": "residential", "nome": "Via Sant'Alessandro", "lunghezza_m": 70.42, "betweenness_edge": 3.197e-05, "u_node": 8780, "v_node": 9910, "circoscrizione": "I", "quartiere": "Tribunali-Castellammare", "upl": "Castellammare o Loggia"}, "geometry": {"type": "LineString", "coordinates": [[13.3649366, 38.12135389999999], [13.3652197, 38.12146279999999], [13.3653509, 38.1213393], [13.3654359, 38.1212375], [13.3654988, 38.12114779999999]]}}, {"type": "Feature", "properties": {"osm_id": "857643556", "highway": "tertiary", "nome": "Corso Tukory", "lunghezza_m": 15.07, "betweenness_edge": 0.00302747, "u_node": 12311, "v_node": 12312, "circoscrizione": "I", "quartiere": "Palazzo Reale - Monte di Pietà", "upl": "Palazzo Reale o Albergaria"}, "geometry": {"type": "LineString", "coordinates": [[13.3651143, 38.1100323], [13.3649454, 38.110007]]}}, {"type": "Feature", "properties": {"osm_id": "857643556", "highway": "tertiary", "nome": "Corso Tukory", "lunghezza_m": 85.9, "betweenness_edge": 0.0404513, "u_node": 12312, "v_node": 6023, "circoscrizione": "I", "quartiere": "Palazzo Reale - Monte di Pietà", "upl": "Palazzo Reale o Albergaria"}, "geometry": {"type": "LineString", "coordinates": [[13.3649454, 38.110007], [13.3648102, 38.1099879], [13.3647325, 38.1099769], [13.3639784, 38.1098833]]}}, {"type": "Feature", "properties": {"osm_id": "1026758582", "highway": "residential", "nome": "Via Alessandro Scarlatti", "lunghezza_m": 65.1, "betweenness_edge": 0.00373039, "u_node": 8828, "v_node": 8633, "circoscrizione": "I", "quartiere": "Palazzo Reale - Monte di Pietà", "upl": "Monte di Pietà  o Seralcadi"}, "geometry": {"type": "LineString", "coordinates": [[13.3581979, 38.11944720000001], [13.3588297, 38.11968849999999], [13.3588664, 38.11970249999999]]}}, {"type": "Feature", "properties": {"osm_id": "1180989868", "highway": "residential", "nome": "Via Divisi", "lunghezza_m": 16.6, "betweenness_edge": 0.00614115, "u_node": 6054, "v_node": 13124, "circoscrizione": "I", "quartiere": "Tribunali-Castellammare", "upl": "Tribunali o Kalsa"}, "geometry": {"type": "LineString", "coordinates": [[13.3652615, 38.1131733], [13.3653863, 38.1132077], [13.3654335, 38.1132332]]}}, {"type": "Feature", "properties": {"osm_id": "1180989868", "highway": "residential", "nome": "Via Divisi", "lunghezza_m": 44.17, "betweenness_edge": 0.006003, "u_node": 13124, "v_node": 8450, "circoscrizione": "I", "quartiere": "Tribunali-Castellammare", "upl": "Tribunali o Kalsa"}, "geometry": {"type": "LineString", "coordinates": [[13.3654335, 38.1132332], [13.3658497, 38.1134574]]}}, {"type": "Feature", "properties": {"nome": "Piazza San Nicolò degli Scalzi", "approssimato": true, "circoscrizione": "I", "quartiere": "Tribunali-Castellammare", "upl": "Tribunali o Kalsa"}, "geometry": {"type": "Polygon", "coordinates": [[[13.364267, 38.1119846], [13.3641761, 38.1121152], [13.3644409, 38.1122353], [13.3645248, 38.1120914], [13.364267, 38.1119846]]]}}]}