{
"type": "FeatureCollection",
"name": "Chiusura",
"crs": { "type": "name", "properties": { "name": "urn:ogc:def:crs:EPSG::3857" } },
"features": [
{ "type": "Feature", "properties": { "fid": 472, "ID": 832743, "LABEL_INDIRIZZO": "VIA CARDUCCI GIOSUE'", "LUNGHEZZA": 279.0, "UFF_CODVIA": 10030, "TIP_DES": "VIA", "UFF_DENOMINAZIONE": "CARDUCCI GIOSUE'", "Odonimo": "Via Carducci Giosuè", "Tratto Interessato": "Tratto da via Libertà a via P. di Villafranca", "Orario Inizio": "07.00 del 31/12/2025", "Orario Fine": "07.00 dell'01/01/2026", "Provvedimento": "Chiusura al transito veicolare", "Note Aggiuntive": "Deroghe per mezzi di soccorso." }, "geometry": { "type": "MultiLineString", "coordinates": [ [ [ 1486366.625790352933109, 4597021.808148583397269 ], [ 1486461.277082100044936, 4597068.185856039635837 ], [ 1486520.081641159951687, 4597098.975447399541736 ], [ 1486656.257622625213116, 4597167.566259224899113 ] ] ] } },
{ "type": "Feature", "properties": { "fid": 565, "ID": 832835, "LABEL_INDIRIZZO": "PIAZZA CASTELNUOVO", "LUNGHEZZA": 487.0, "UFF_CODVIA": 11050, "TIP_DES": "PIAZZA", "UFF_DENOMINAZIONE": "CASTELNUOVO", "Odonimo": "Piazza Castelnuovo", "Tratto Interessato": "Tratto tra via Libertà e via Dante (inclusa strada retro Palchetto della Musica e prolungamento via XX Settembre)", "Orario Inizio": "07.00 del 31/12/2025", "Orario Fine": "07.00 dell'01/01/2026", "Provvedimento": "Chiusura al transito veicolare", "Note Aggiuntive": "Include area riservata Taxi; deroghe per mezzi di soccorso." }, "geometry": { "type": "MultiLineString", "coordinates": [ [ [ 1486761.000574379926547, 4597010.301213449798524 ], [ 1486718.66126664285548, 4596983.016800280660391 ], [ 1486679.583887302316725, 4596949.927083903923631 ], [ 1486646.100245730485767, 4596901.710640040226281 ], [ 1486633.652209569700062, 4596885.402136968448758 ], [ 1486618.561633750097826, 4596912.703185330145061 ], [ 1486598.674868779955432, 4596951.236627420410514 ], [ 1486580.751703989924863, 4596987.056331110186875 ], [ 1486556.970322410110384, 4597030.25703360978514 ], [ 1486715.309679060010239, 4597101.978358100168407 ], [ 1486756.033999329898506, 4597020.266520620323718 ], [ 1486761.000574379926547, 4597010.301213449798524 ] ] ] } },
{ "type": "Feature", "properties": { "fid": 655, "ID": 833558, "LABEL_INDIRIZZO": "VIA GALLO NICOLO'", "LUNGHEZZA": 156.0, "UFF_CODVIA": 20120, "TIP_DES": "VIA", "UFF_DENOMINAZIONE": "GALLO NICOLO'", "Odonimo": "Via Gallo Nicolò", "Tratto Interessato": "Tratto da via I. La Lumia a via Libertà", "Orario Inizio": "07.00 del 31/12/2025", "Orario Fine": "07.00 dell'01/01/2026", "Provvedimento": "Chiusura al transito veicolare", "Note Aggiuntive": "Deroghe per mezzi di soccorso." }, "geometry": { "type": "MultiLineString", "coordinates": [ [ [ 1486697.468091153539717, 4597188.882107171230018 ], [ 1486764.46461502998136, 4597224.087005349807441 ], [ 1486855.944197086617351, 4597271.291257952339947 ] ] ] } },
{ "type": "Feature", "properties": { "fid": 975, "ID": 833148, "LABEL_INDIRIZZO": "VIA DAITA GAETANO", "LUNGHEZZA": 393.0, "UFF_CODVIA": 15280, "TIP_DES": "VIA", "UFF_DENOMINAZIONE": "DAITA GAETANO", "Odonimo": "Via Daita Gaetano", "Tratto Interessato": "Tratto da via Mazzini a via Turati", "Orario Inizio": "07.00 del 31/12/2025", "Orario Fine": "07.00 dell'01/01/2026", "Provvedimento": "Chiusura al transito veicolare", "Note Aggiuntive": "Deroghe per mezzi di soccorso." }, "geometry": { "type": "MultiLineString", "coordinates": [ [ [ 1486658.075571656227112, 4597435.479279215447605 ], [ 1486660.281552748056129, 4597431.618812304921448 ], [ 1486686.751356390072033, 4597378.289351220242679 ], [ 1486726.327094719978049, 4597297.732261720113456 ], [ 1486764.46461502998136, 4597224.087005349807441 ], [ 1486801.6362912831828, 4597149.261689197272062 ] ] ] } },
{ "type": "Feature", "properties": { "fid": 1094, "ID": 833267, "LABEL_INDIRIZZO": "VIA DI GIOVANNI GIOVANNI", "LUNGHEZZA": 106.0, "UFF_CODVIA": 16580, "TIP_DES": "VIA", "UFF_DENOMINAZIONE": "DI GIOVANNI GIOVANNI", "Odonimo": "Via Di Giovanni Giovanni", "Tratto Interessato": "Tratto da via G.ppe Puglisi Bertolino a via I. La Lumia", "Orario Inizio": "07.00 del 31/12/2025", "Orario Fine": "07.00 dell'01/01/2026", "Provvedimento": "Chiusura al transito veicolare", "Note Aggiuntive": "Deroghe per mezzi di soccorso." }, "geometry": { "type": "MultiLineString", "coordinates": [ [ [ 1486830.339059414109215, 4597322.58031833730638 ], [ 1486908.194669469958171, 4597362.960360378958285 ] ] ] } },
{ "type": "Feature", "properties": { "fid": 1321, "ID": 833494, "LABEL_INDIRIZZO": "VIA FOLENGO", "LUNGHEZZA": 54.0, "UFF_CODVIA": 19390, "TIP_DES": "VIA", "UFF_DENOMINAZIONE": "FOLENGO", "Odonimo": "Via Folengo", "Tratto Interessato": "Intero tratto", "Orario Inizio": "07.00 del 31/12/2025", "Orario Fine": "07.00 dell'01/01/2026", "Provvedimento": "Chiusura al transito veicolare", "Note Aggiuntive": "Deroghe per mezzi di soccorso e Autorità." }, "geometry": { "type": "MultiLineString", "coordinates": [ [ [ 1486580.751703989924863, 4596987.056331110186875 ], [ 1486520.04351064004004, 4596955.210462939925492 ] ] ] } },
{ "type": "Feature", "properties": { "fid": 2236, "ID": 835949, "LABEL_INDIRIZZO": "VIA TURATI FILIPPO", "LUNGHEZZA": 78.0, "UFF_CODVIA": 52330, "TIP_DES": "VIA", "UFF_DENOMINAZIONE": "TURATI FILIPPO", "Odonimo": "Via Turati Filippo", "Tratto Interessato": "Intero tratto", "Orario Inizio": "07.00 del 31/12/2025", "Orario Fine": "07.00 dell'01/01/2026", "Provvedimento": "Chiusura al transito veicolare", "Note Aggiuntive": "Deroghe per mezzi di soccorso e Protezione Civile." }, "geometry": { "type": "MultiLineString", "coordinates": [ [ [ 1486803.340755379991606, 4597145.830661119893193 ], [ 1486895.612464219564572, 4597194.594022493809462 ] ] ] } },
{ "type": "Feature", "properties": { "fid": 2392, "ID": 833740, "LABEL_INDIRIZZO": "VIA GUARINO AMELLA GIOVANNI", "LUNGHEZZA": 54.0, "UFF_CODVIA": 22160, "TIP_DES": "VIA", "UFF_DENOMINAZIONE": "GUARINO AMELLA GIOVANNI", "Odonimo": "Via Guarino Amella Giovanni", "Tratto Interessato": "Intero tratto", "Orario Inizio": "07.00 del 31/12/2025", "Orario Fine": "07.00 dell'01/01/2026", "Provvedimento": "Chiusura al transito veicolare", "Note Aggiuntive": "Deroghe per mezzi di soccorso e società partecipate del Comune." }, "geometry": { "type": "MultiLineString", "coordinates": [ [ [ 1486598.674868779955432, 4596951.236627420410514 ], [ 1486537.828889220021665, 4596919.434054089710116 ] ] ] } },
{ "type": "Feature", "properties": { "fid": 2753, "ID": 833844, "LABEL_INDIRIZZO": "VIA LA LUMIA ISIDORO", "LUNGHEZZA": 459.0, "UFF_CODVIA": 23340, "TIP_DES": "VIA", "UFF_DENOMINAZIONE": "LA LUMIA ISIDORO", "Odonimo": "Via La Lumia Isidoro", "Tratto Interessato": "Tratto da via Mazzini a via Turati", "Orario Inizio": "07.00 del 31/12/2025", "Orario Fine": "07.00 dell'01/01/2026", "Provvedimento": "Chiusura al transito veicolare", "Note Aggiuntive": "Deroghe per mezzi di soccorso." }, "geometry": { "type": "MultiLineString", "coordinates": [ [ [ 1486751.041917667724192, 4597478.101985310204327 ], [ 1486777.568430464714766, 4597422.720488057471812 ], [ 1486818.284948448184878, 4597344.640129254199564 ], [ 1486821.515135046793148, 4597339.755456836894155 ], [ 1486830.339059414109215, 4597322.58031833730638 ], [ 1486855.944197086617351, 4597271.291257952339947 ], [ 1486895.612464219564572, 4597194.594022493809462 ] ] ] } },
{ "type": "Feature", "properties": { "fid": 2849, "ID": 836156, "LABEL_INDIRIZZO": "VIA VILLAREALE VALERIO", "LUNGHEZZA": 186.0, "UFF_CODVIA": 57075, "TIP_DES": "VIA", "UFF_DENOMINAZIONE": "VILLAREALE VALERIO", "Odonimo": "Via Villareale Valerio", "Tratto Interessato": "Intero tratto", "Orario Inizio": "07.00 del 31/12/2025", "Orario Fine": "07.00 dell'01/01/2026", "Provvedimento": "Chiusura al transito veicolare", "Note Aggiuntive": "Deroghe per mezzi di soccorso, Protezione Civile e mezzi di supporto dell'Organizzazione." }, "geometry": { "type": "MultiLineString", "coordinates": [ [ [ 1486586.460202839924023, 4596825.125826640054584 ], [ 1486697.749996100086719, 4596793.235138789750636 ], [ 1486772.077523079235107, 4596774.23644695058465 ], [ 1486814.460641419980675, 4596763.443981190212071 ] ] ] } },
{ "type": "Feature", "properties": { "fid": 3061, "ID": 836209, "LABEL_INDIRIZZO": "VIA WAGNER RICCARDO", "LUNGHEZZA": 216.0, "UFF_CODVIA": 57610, "TIP_DES": "VIA", "UFF_DENOMINAZIONE": "WAGNER RICCARDO", "Odonimo": "Via Wagner Riccardo", "Tratto Interessato": "Tratto da via E. Amari a via M. Stabile", "Orario Inizio": "07.00 del 31/12/2025", "Orario Fine": "07.00 dell'01/01/2026", "Provvedimento": "Chiusura al transito veicolare", "Note Aggiuntive": "Deroghe per mezzi di soccorso." }, "geometry": { "type": "MultiLineString", "coordinates": [ [ [ 1486982.498642359860241, 4597123.463656877167523 ], [ 1487009.929555798415095, 4597066.0956238983199 ], [ 1487039.080020225839689, 4597003.540302939713001 ], [ 1487054.521887868409976, 4596972.18385742045939 ], [ 1487066.654783873353153, 4596944.136383539065719 ], [ 1487101.083845913177356, 4596874.647979147732258 ] ] ] } },
{ "type": "Feature", "properties": { "fid": 3210, "ID": 834698, "LABEL_INDIRIZZO": "VIA PARISI ENRICO", "LUNGHEZZA": 269.0, "UFF_CODVIA": 34230, "TIP_DES": "VIA", "UFF_DENOMINAZIONE": "PARISI ENRICO", "Odonimo": "Via Parisi Enrico", "Tratto Interessato": "Tratto da via Libertà a via N. Garzilli", "Orario Inizio": "07.00 del 31/12/2025", "Orario Fine": "07.00 dell'01/01/2026", "Provvedimento": "Chiusura al transito veicolare", "Note Aggiuntive": "Deroghe per mezzi di soccorso." }, "geometry": { "type": "MultiLineString", "coordinates": [ [ [ 1486388.000446807127446, 4597234.111201737076044 ], [ 1486439.271387279964983, 4597259.020531440153718 ], [ 1486577.512495171977207, 4597327.04732690192759 ] ] ] } },
{ "type": "Feature", "properties": { "fid": 4346, "ID": 834228, "LABEL_INDIRIZZO": "VIA MESSINA", "LUNGHEZZA": 264.0, "UFF_CODVIA": 28010, "TIP_DES": "VIA", "UFF_DENOMINAZIONE": "MESSINA", "Odonimo": "Via Messina", "Tratto Interessato": "Tratto da via Libertà a via N. Garzilli", "Orario Inizio": "07.00 del 31/12/2025", "Orario Fine": "07.00 dell'01/01/2026", "Provvedimento": "Chiusura al transito veicolare", "Note Aggiuntive": "Deroghe per mezzi di soccorso." }, "geometry": { "type": "MultiLineString", "coordinates": [ [ [ 1486360.37323259958066, 4597291.78749633114785 ], [ 1486410.949229869991541, 4597316.538128679618239 ], [ 1486548.564536290010437, 4597382.949380150996149 ] ] ] } },
{ "type": "Feature", "properties": { "fid": 4637, "ID": 836563, "LABEL_INDIRIZZO": "VIA PIETRO VALDO PANASCIA", "LUNGHEZZA": 79.0, "UFF_CODVIA": 62880, "TIP_DES": "VIA", "UFF_DENOMINAZIONE": "PIETRO VALDO PANASCIA", "Odonimo": "Via Pietro Valdo Panascia", "Tratto Interessato": "Intero tratto", "Orario Inizio": "07.00 del 31/12/2025", "Orario Fine": "07.00 dell'01/01/2026", "Provvedimento": "Chiusura al transito veicolare", "Note Aggiuntive": "Consentito transito e parcheggio mezzi produzione con Pass dalle 14:00 del 27/12/2025." }, "geometry": { "type": "MultiLineString", "coordinates": [ [ [ 1486942.135029745055363, 4597104.266975287348032 ], [ 1486895.612464219564572, 4597194.594022493809462 ] ] ] } },
{ "type": "Feature", "properties": { "fid": 4879, "ID": 835861, "LABEL_INDIRIZZO": "VIA TORREARSA", "LUNGHEZZA": 158.0, "UFF_CODVIA": 50960, "TIP_DES": "VIA", "UFF_DENOMINAZIONE": "TORREARSA", "Odonimo": "Via Torrearsa", "Tratto Interessato": "Tratto da via I. La Lumia a via Libertà", "Orario Inizio": "07.00 del 31/12/2025", "Orario Fine": "07.00 dell'01/01/2026", "Provvedimento": "Chiusura al transito veicolare", "Note Aggiuntive": "Deroghe per mezzi di soccorso." }, "geometry": { "type": "MultiLineString", "coordinates": [ [ [ 1486660.045197631930932, 4597264.358174526132643 ], [ 1486726.327094719978049, 4597297.732261720113456 ], [ 1486818.284948448184878, 4597344.640129254199564 ] ] ] } },
{ "type": "Feature", "properties": { "fid": 5006, "ID": 835894, "LABEL_INDIRIZZO": "VIA TRAPANI", "LUNGHEZZA": 234.0, "UFF_CODVIA": 51330, "TIP_DES": "VIA", "UFF_DENOMINAZIONE": "TRAPANI", "Odonimo": "Via Trapani", "Tratto Interessato": "Tratto da via Libertà a via N. Garzilli", "Orario Inizio": "07.00 del 31/12/2025", "Orario Fine": "07.00 dell'01/01/2026", "Provvedimento": "Chiusura al transito veicolare", "Note Aggiuntive": "Deroghe per mezzi di soccorso." }, "geometry": { "type": "MultiLineString", "coordinates": [ [ [ 1486325.150880898116156, 4597365.319873422384262 ], [ 1486373.841040109982714, 4597389.099236260168254 ], [ 1486509.81241359654814, 4597457.784474230371416 ] ] ] } },
{ "type": "Feature", "properties": { "fid": 5007, "ID": 833577, "LABEL_INDIRIZZO": "VIA GARZILLI NICCOLO'", "LUNGHEZZA": 791.0, "UFF_CODVIA": 20330, "TIP_DES": "VIA", "UFF_DENOMINAZIONE": "GARZILLI NICCOLO'", "Odonimo": "Via Garzilli Niccolò", "Tratto Interessato": "Tratto da Piazza S. Oliva a via XII Gennaio", "Orario Inizio": "07.00 del 31/12/2025", "Orario Fine": "07.00 dell'01/01/2026", "Provvedimento": "Chiusura al transito veicolare", "Note Aggiuntive": "Deroghe per mezzi di soccorso." }, "geometry": { "type": "MultiLineString", "coordinates": [ [ [ 1486426.445368026616052, 4597139.974626525305212 ], [ 1486461.277082100044936, 4597068.185856039635837 ], [ 1486490.477966679958627, 4597010.464307709597051 ], [ 1486520.04351064004004, 4596955.210462939925492 ], [ 1486537.828889220021665, 4596919.434054089710116 ], [ 1486556.065816069953144, 4596881.204864510335028 ], [ 1486586.460202839924023, 4596825.125826640054584 ] ] ] } },
{ "type": "Feature", "properties": { "fid": 5008, "ID": 835419, "LABEL_INDIRIZZO": "PIAZZA S. OLIVA", "LUNGHEZZA": 378.0, "UFF_CODVIA": 45880, "TIP_DES": "PIAZZA", "UFF_DENOMINAZIONE": "S. OLIVA", "Odonimo": "Piazza S. Oliva", "Tratto Interessato": "Tratto da via Abela a via Principe di Villafranca", "Orario Inizio": "07.00 del 31/12/2025", "Orario Fine": "07.00 dell'01/01/2026", "Provvedimento": "Chiusura al transito veicolare", "Note Aggiuntive": "Deroghe per mezzi di soccorso e Autorità; consentito accesso ai residenti fuori orari manifestazione." }, "geometry": { "type": "MultiLineString", "coordinates": [ [ [ 1486496.940470654983073, 4596736.636287093162537 ], [ 1486499.776732058729976, 4596734.115165845490992 ], [ 1486505.528039905242622, 4596729.388063505291939 ], [ 1486515.218599701300263, 4596720.87927929405123 ] ] ] } },
{ "type": "Feature", "properties": { "fid": 5009, "ID": 831694, "LABEL_INDIRIZZO": "VIA ALBANESE ENRICO", "LUNGHEZZA": 605.0, "UFF_CODVIA": 1490, "TIP_DES": "VIA", "UFF_DENOMINAZIONE": "ALBANESE ENRICO", "Odonimo": "Via Albanese Enrico", "Tratto Interessato": "Tratto da via G. Daita a via Libertà", "Orario Inizio": "07.00 del 31/12/2025", "Orario Fine": "07.00 dell'01/01/2026", "Provvedimento": "Chiusura al transito veicolare", "Note Aggiuntive": "Deroghe per mezzi di soccorso." }, "geometry": { "type": "MultiLineString", "coordinates": [ [ [ 1486436.689612086862326, 4597703.033271639607847 ], [ 1486500.347923592664301, 4597737.698688796721399 ], [ 1486503.578110191505402, 4597739.668314771726727 ] ] ] } },
{ "type": "Feature", "properties": { "fid": 5010, "ID": 835580, "LABEL_INDIRIZZO": "VIA SELLA QUINTINO", "LUNGHEZZA": 398.0, "UFF_CODVIA": 47660, "TIP_DES": "VIA", "UFF_DENOMINAZIONE": "SELLA QUINTINO", "Odonimo": "Via Sella Quintino", "Tratto Interessato": "Tratto da via I. La Lumia a via Libertà", "Orario Inizio": "07.00 del 31/12/2025", "Orario Fine": "07.00 dell'01/01/2026", "Provvedimento": "Chiusura al transito veicolare", "Note Aggiuntive": "Deroghe per mezzi di soccorso." }, "geometry": { "type": "MultiLineString", "coordinates": [ [ [ 1486618.446697043720633, 4597345.585549728013575 ], [ 1486686.751356390072033, 4597378.289351220242679 ], [ 1486777.568430464714766, 4597422.720488057471812 ], [ 1486777.568430464714766, 4597422.720488057471812 ] ] ] } },
{ "type": "Feature", "properties": { "fid": 5011, "ID": 833303, "LABEL_INDIRIZZO": "VIA DODICI GENNAIO", "LUNGHEZZA": 275.0, "UFF_CODVIA": 16970, "TIP_DES": "VIA", "UFF_DENOMINAZIONE": "DODICI GENNAIO", "Odonimo": "Via Dodici Gennaio", "Tratto Interessato": "Tratto da via Libertà a via XX Settembre", "Orario Inizio": "07.00 del 31/12/2025", "Orario Fine": "07.00 dell'01/01/2026", "Provvedimento": "Chiusura al transito veicolare", "Note Aggiuntive": "Deroghe per mezzi di soccorso." }, "geometry": { "type": "MultiLineString", "coordinates": [ [ [ 1486488.376131977885962, 4597174.901602551341057 ], [ 1486619.598928238963708, 4597243.499835452064872 ] ] ] } },
{ "type": "Feature", "properties": { "fid": 5013, "ID": 831739, "LABEL_INDIRIZZO": "VIA AMARI EMERICO", "LUNGHEZZA": 600.0, "UFF_CODVIA": 1960, "TIP_DES": "VIA", "UFF_DENOMINAZIONE": "AMARI EMERICO", "Odonimo": "Via Amari Emerico", "Tratto Interessato": "Tratto da via Roma a via Wagner", "Orario Inizio": "07.00 del 31/12/2025", "Orario Fine": "07.00 dell'01/01/2026", "Provvedimento": "Chiusura al transito veicolare", "Note Aggiuntive": "Deroghe per mezzi di soccorso." }, "geometry": { "type": "MultiLineString", "coordinates": [ [ [ 1486982.498642359860241, 4597123.463656877167523 ], [ 1487046.328243812546134, 4597158.924096092581749 ], [ 1487051.291701269103214, 4597161.681572457775474 ] ] ] } },
{ "type": "Feature", "properties": { "fid": 5015, "ID": 832635, "LABEL_INDIRIZZO": "VIA SCINA' DOMENICO", "LUNGHEZZA": 522.0, "UFF_CODVIA": 47300, "TIP_DES": "VIA", "UFF_DENOMINAZIONE": "SCINA' DOMENICO", "Odonimo": "Via Scinà Domenico", "Tratto Interessato": "Tratto da via Turati a Piazza Sturzo", "Orario Inizio": "07.00 del 31/12/2025", "Orario Fine": "07.00 dell'01/01/2026", "Provvedimento": "Chiusura al transito veicolare", "Note Aggiuntive": "Deroghe per mezzi di soccorso." }, "geometry": { "type": "MultiLineString", "coordinates": [ [ [ 1486895.612464219564572, 4597194.594022493809462 ], [ 1486916.428629480069503, 4597204.993885479867458 ], [ 1486931.282390623819083, 4597225.261098924092948 ], [ 1486942.312296082498506, 4597249.999601168558002 ], [ 1486952.554351150989532, 4597273.319972708821297 ] ] ] } },
{ "type": "Feature", "properties": { "fid": 5016, "ID": 834730, "LABEL_INDIRIZZO": "VIA PATERNOSTRO PAOLO", "LUNGHEZZA": 310.0, "UFF_CODVIA": 34580, "TIP_DES": "VIA", "UFF_DENOMINAZIONE": "PATERNOSTRO PAOLO", "Odonimo": "Via Paternostro Paolo", "Tratto Interessato": "Tratto da via Villafranca a Piazza Castelnuovo", "Orario Inizio": "07.00 del 31/12/2025", "Orario Fine": "07.00 dell'01/01/2026", "Provvedimento": "Chiusura al transito veicolare", "Note Aggiuntive": "Deroghe per mezzi di soccorso e Protezione Civile." }, "geometry": { "type": "MultiLineString", "coordinates": [ [ [ 1486455.982161136111245, 4596828.479821043089032 ], [ 1486510.744740129914135, 4596857.016766140237451 ], [ 1486556.065816069953144, 4596881.204864510335028 ], [ 1486608.463491870090365, 4596907.613684340380132 ], [ 1486618.561633750097826, 4596912.703185330145061 ] ] ] } },
{ "type": "Feature", "properties": { "fid": 5017, "ID": 833168, "LABEL_INDIRIZZO": "VIA DANTE", "LUNGHEZZA": 1229.0, "UFF_CODVIA": 15510, "TIP_DES": "VIA", "UFF_DENOMINAZIONE": "DANTE", "Odonimo": "Via Dante", "Tratto Interessato": "Tratto tra piazza Castelnuovo e via Villafranca", "Orario Inizio": "07.00 del 31/12/2025", "Orario Fine": "07.00 dell'01/01/2026", "Provvedimento": "Chiusura al transito veicolare", "Note Aggiuntive": "Deroghe per mezzi di soccorso, Autorità e Protezione Civile." }, "geometry": { "type": "MultiLineString", "coordinates": [ [ [ 1486384.281467023771256, 4596977.425119172781706 ], [ 1486490.477966679958627, 4597010.464307709597051 ], [ 1486556.970322410110384, 4597030.25703360978514 ] ] ] } },
{ "type": "Feature", "properties": { "fid": 5018, "ID": 835176, "LABEL_INDIRIZZO": "VIA ROMA", "LUNGHEZZA": 1828.0, "UFF_CODVIA": 42270, "TIP_DES": "VIA", "UFF_DENOMINAZIONE": "ROMA", "Odonimo": "Via Roma", "Tratto Interessato": "Tratto tra via Emerico Amari e Piazza Sturzo (semicarreggiata lato monte)", "Orario Inizio": "07.00 del 31/12/2025", "Orario Fine": "07.00 dell'01/01/2026", "Provvedimento": "Chiusura al transito veicolare", "Note Aggiuntive": "Deroghe per mezzi di soccorso." }, "geometry": { "type": "MultiLineString", "coordinates": [ [ [ 1487015.582382345106453, 4597231.091191807761788 ], [ 1487025.135068324161693, 4597213.147899177856743 ], [ 1487051.291701269103214, 4597161.681572457775474 ] ] ] } },
{ "type": "Feature", "properties": { "fid": 5019, "ID": 833921, "LABEL_INDIRIZZO": "VIA DELLA LIBERTA'", "LUNGHEZZA": 2525.0, "UFF_CODVIA": 24210, "TIP_DES": "VIA", "UFF_DENOMINAZIONE": "DELLA LIBERTA'", "Odonimo": "Via Della Libertà", "Tratto Interessato": "Carreggiata centrale e laterali tra piazze Mordini/Crispi (escluse) e R. Settimo/Castelnuovo", "Orario Inizio": "07.00 del 31/12/2025", "Orario Fine": "07.00 dell'01/01/2026", "Provvedimento": "Chiusura al transito veicolare", "Note Aggiuntive": "Consentito attraversamento via Archimede/via Siracusa; sospesa pista ciclabile." }, "geometry": { "type": "MultiLineString", "coordinates": [ [ [ 1486343.486910960637033, 4597795.083741569891572 ], [ 1486367.98905808548443, 4597744.316632069647312 ], [ 1486471.19745916663669, 4597536.521091727539897 ], [ 1486510.905118819093332, 4597457.578482656739652 ], [ 1486533.092955426080152, 4597416.482236691750586 ], [ 1486554.049775798106566, 4597375.356446336954832 ], [ 1486578.719341132324189, 4597327.730890264734626 ], [ 1486619.598928238963708, 4597243.499835452064872 ], [ 1486657.524076384492218, 4597167.413184044882655 ], [ 1486695.49846517923288, 4597095.088518249802291 ] ] ] } },
{ "type": "Feature", "properties": { "fid": 5020, "ID": 833921, "LABEL_INDIRIZZO": "VIA DELLA LIBERTA'", "LUNGHEZZA": 2525.0, "UFF_CODVIA": 24210, "TIP_DES": "VIA", "UFF_DENOMINAZIONE": "DELLA LIBERTA'", "Odonimo": "Via Della Libertà", "Tratto Interessato": "Carreggiata centrale e laterali tra piazze Mordini/Crispi (escluse) e R. Settimo/Castelnuovo", "Orario Inizio": "07.00 del 31/12/2025", "Orario Fine": "07.00 dell'01/01/2026", "Provvedimento": "Chiusura al transito veicolare", "Note Aggiuntive": "Consentito attraversamento via Archimede/via Siracusa; sospesa pista ciclabile." }, "geometry": { "type": "MultiLineString", "coordinates": [ [ [ 1486360.425694342236966, 4597805.059897132217884 ], [ 1486388.158028067555279, 4597750.934575345367193 ], [ 1486416.835782261099666, 4597691.68822602275759 ], [ 1486452.604189963778481, 4597618.260569681413472 ], [ 1486565.975861076498404, 4597395.486023799516261 ], [ 1486715.309679060010239, 4597101.978358100168407 ] ] ] } },
{ "type": "Feature", "properties": { "fid": 5021, "ID": 833921, "LABEL_INDIRIZZO": "VIA DELLA LIBERTA'", "LUNGHEZZA": 2525.0, "UFF_CODVIA": 24210, "TIP_DES": "VIA", "UFF_DENOMINAZIONE": "DELLA LIBERTA'", "Odonimo": "Via Della Libertà", "Tratto Interessato": "Carreggiata centrale e laterali tra piazze Mordini/Crispi (escluse) e R. Settimo/Castelnuovo", "Orario Inizio": "07.00 del 31/12/2025", "Orario Fine": "07.00 dell'01/01/2026", "Provvedimento": "Chiusura al transito veicolare", "Note Aggiuntive": "Consentito attraversamento via Archimede/via Siracusa; sospesa pista ciclabile." }, "geometry": { "type": "MultiLineString", "coordinates": [ [ [ 1486381.067374557955191, 4597813.174756151624024 ], [ 1486408.799708283273503, 4597759.049434364773333 ], [ 1486436.689612086862326, 4597703.033271639607847 ], [ 1486511.141473935684189, 4597557.99001485388726 ], [ 1486550.84913358814083, 4597479.047405783087015 ], [ 1486591.738568825414404, 4597397.820030580274761 ], [ 1486618.446697043720633, 4597345.585549728013575 ], [ 1486660.045197631930932, 4597264.358174526132643 ], [ 1486697.468091153539717, 4597188.882107171230018 ], [ 1486735.442479948280379, 4597116.557441376149654 ] ] ] } },
{ "type": "Feature", "properties": { "fid": 5022, "ID": 832258, "LABEL_INDIRIZZO": "VIA CALTANISSETTA", "LUNGHEZZA": 330.0, "UFF_CODVIA": 9040, "TIP_DES": "VIA", "UFF_DENOMINAZIONE": "CALTANISSETTA", "Odonimo": "Via Caltanissetta", "Tratto Interessato": "Tratto da via Libertà a via XX Settembre", "Orario Inizio": "07.00 del 31/12/2025", "Orario Fine": "07.00 dell'01/01/2026", "Provvedimento": "Chiusura al transito veicolare", "Note Aggiuntive": "Deroghe per mezzi di soccorso." }, "geometry": { "type": "MultiLineString", "coordinates": [ [ [ 1486234.041426448849961, 4597674.081963806413114 ], [ 1486367.98905808548443, 4597744.316632069647312 ] ] ] } },
{ "type": "Feature", "properties": { "fid": 5023, "ID": 835756, "LABEL_INDIRIZZO": "PIAZZA STURZO LUIGI", "LUNGHEZZA": 227.0, "UFF_CODVIA": 49580, "TIP_DES": "PIAZZA", "UFF_DENOMINAZIONE": "STURZO LUIGI", "Odonimo": "Piazza Sturzo Luigi", "Tratto Interessato": "Tratto tra via Domenico Scinà e via Roma (lato Monte)", "Orario Inizio": "07.00 del 31/12/2025", "Orario Fine": "07.00 dell'01/01/2026", "Provvedimento": "Chiusura al transito veicolare", "Note Aggiuntive": "Deroghe per mezzi di soccorso." }, "geometry": { "type": "MultiLineString", "coordinates": [ [ [ 1486952.554351150989532, 4597273.319972708821297 ], [ 1486965.475097545655444, 4597268.435300289653242 ], [ 1486996.539353333646432, 4597250.460236719809473 ], [ 1487006.51662216312252, 4597240.346292978152633 ], [ 1487015.582382345106453, 4597231.091191807761788 ] ] ] } }
]
}
