{
"type": "FeatureCollection",
"name": "Divieto",
"crs": { "type": "name", "properties": { "name": "urn:ogc:def:crs:OGC:1.3:CRS84" } },
"features": [
{ "type": "Feature", "properties": { "fid": 1, "ID": 833749, "LABEL_INDIRIZZO": "VIA GUCCIA GIOVAN BATTISTA", "LUNGHEZZA": 101.0, "UFF_CODVIA": 22260, "TIP_DES": "VIA", "UFF_DENOMINAZIONE": "GUCCIA GIOVAN BATTISTA", "Odonimo": "Via Guccia Giovan Battista", "Tratto Stradale": "Intero tratto", "Tipo di Limitazione": "Divieto di sosta con rimozione coatta", "Periodo di Validità": "Dal 31/12/2025 al 01/01/2026", "Orario di Inizio": "07:00:00.000", "Orario di Fine": "07:00:00.000", "Note Aggiuntive": "Ambo i lati; non soggetta a chiusura transito" }, "geometry": { "type": "MultiLineString", "coordinates": [ [ [ 13.355438121990533, 38.123268048926519 ], [ 13.355602750030235, 38.123177236152976 ], [ 13.356261903821247, 38.122785091705104 ], [ 13.356361779583441, 38.122719434512071 ] ] ] } },
{ "type": "Feature", "properties": { "fid": 2, "ID": 834973, "LABEL_INDIRIZZO": "VIA PRINCIPE DI VILLAFRANCA", "LUNGHEZZA": 795.0, "UFF_CODVIA": 38970, "TIP_DES": "VIA", "UFF_DENOMINAZIONE": "PRINCIPE DI VILLAFRANCA", "Odonimo": "Via Principe Di Villafranca", "Tratto Stradale": "Tratto da Piazza S. Oliva a via Dante", "Tipo di Limitazione": "Divieto di sosta con rimozione coatta", "Periodo di Validità": "Dal 31/12/2025 al 01/01/2026", "Orario di Inizio": "07:00:00.000", "Orario di Fine": "07:00:00.000", "Note Aggiuntive": "Ambo i lati; non soggetta a chiusura transito" }, "geometry": { "type": "MultiLineString", "coordinates": [ [ [ 13.352391268186349, 38.12410807621626 ], [ 13.352428143776903, 38.124044495498865 ], [ 13.352722063458325, 38.123537715954846 ], [ 13.35300543131444, 38.123090450810764 ], [ 13.353018752129238, 38.123069425205955 ], [ 13.353417182670208, 38.122447826853289 ] ] ] } },
{ "type": "Feature", "properties": { "fid": 3, "ID": 835131, "LABEL_INDIRIZZO": "VIA RICASOLI", "LUNGHEZZA": 263.0, "UFF_CODVIA": 41640, "TIP_DES": "VIA", "UFF_DENOMINAZIONE": "RICASOLI", "Odonimo": "Via Ricasoli", "Tratto Stradale": "Tratto da via Daita a via Libertà", "Tipo di Limitazione": "Divieto di sosta con rimozione coatta", "Periodo di Validità": "Dal 31/12/2025 al 01/01/2026", "Orario di Inizio": "07:00:00.000", "Orario di Fine": "07:00:00.000", "Note Aggiuntive": "Ambo i lati; non soggetta a chiusura transito" }, "geometry": { "type": "MultiLineString", "coordinates": [ [ [ 13.353925515522342, 38.127700370925467 ], [ 13.354520015481713, 38.127943105962686 ] ] ] } },
{ "type": "Feature", "properties": { "fid": 4, "ID": 834354, "LABEL_INDIRIZZO": "PIAZZA MORO ALDO", "LUNGHEZZA": 67.0, "UFF_CODVIA": 30020, "TIP_DES": "PIAZZA", "UFF_DENOMINAZIONE": "MORO ALDO", "Odonimo": "Piazza Moro Aldo", "Tratto Stradale": "Intera piazza", "Tipo di Limitazione": "Divieto di sosta con rimozione coatta", "Periodo di Validità": "Dal 31/12/2025 al 01/01/2026", "Orario di Inizio": "07:00:00.000", "Orario di Fine": "07:00:00.000", "Note Aggiuntive": "Ambo i lati; non soggetta a chiusura transito" }, "geometry": { "type": "MultiLineString", "coordinates": [ [ [ 13.356408890125742, 38.122445774294476 ], [ 13.356281546441101, 38.122627254306032 ], [ 13.356361779583441, 38.122719434512071 ], [ 13.356635082264249, 38.122535086115697 ] ] ] } },
{ "type": "Feature", "properties": { "fid": 5, "ID": 836075, "LABEL_INDIRIZZO": "VIA XX SETTEMBRE", "LUNGHEZZA": 733.0, "UFF_CODVIA": 56260, "TIP_DES": "VIA", "UFF_DENOMINAZIONE": "XX SETTEMBRE", "Odonimo": "Via Xx Settembre", "Tratto Stradale": "Tratto da via Dante a via XII Gennaio", "Tipo di Limitazione": "Divieto di sosta con rimozione coatta", "Periodo di Validità": "Dal 31/12/2025 al 01/01/2026", "Orario di Inizio": "07:00:00.000", "Orario di Fine": "07:00:00.000", "Note Aggiuntive": "Ambo i lati; non soggetta a chiusura transito" }, "geometry": { "type": "MultiLineString", "coordinates": [ [ [ 13.353312435345448, 38.125510216184644 ], [ 13.353637094888528, 38.124998405941156 ], [ 13.353968471550306, 38.124512789265594 ] ] ] } },
{ "type": "Feature", "properties": { "fid": 6, "ID": 836075, "LABEL_INDIRIZZO": "VIA XX SETTEMBRE", "LUNGHEZZA": 733.0, "UFF_CODVIA": 56260, "TIP_DES": "VIA", "UFF_DENOMINAZIONE": "XX SETTEMBRE", "Odonimo": "Via Xx Settembre", "Tratto Stradale": "Tratto da via Dante a via XII Gennaio", "Tipo di Limitazione": "Divieto di sosta con rimozione coatta", "Periodo di Validità": "Dal 31/12/2025 al 01/01/2026", "Orario di Inizio": "07:00:00.000", "Orario di Fine": "07:00:00.000", "Note Aggiuntive": "Ambo i lati; non soggetta a chiusura transito" }, "geometry": { "type": "MultiLineString", "coordinates": [ [ [ 13.353308245186746, 38.125516821746004 ], [ 13.353312435345448, 38.125510216184644 ] ] ] } },
{ "type": "Feature", "properties": { "fid": 7, "ID": 834698, "LABEL_INDIRIZZO": "VIA PARISI ENRICO", "LUNGHEZZA": 269.0, "UFF_CODVIA": 34230, "TIP_DES": "VIA", "UFF_DENOMINAZIONE": "PARISI ENRICO", "Odonimo": "Via Parisi Enrico", "Tratto Stradale": "Tratto da via Libertà a via XX Settembre", "Tipo di Limitazione": "Divieto di sosta con rimozione coatta", "Periodo di Validità": "Dal 31/12/2025 al 01/01/2026", "Orario di Inizio": "07:00:00.000", "Orario di Fine": "07:00:00.000", "Note Aggiuntive": "Ambo i lati; non soggetta a chiusura transito (N.B. su pag. 5 la chiusura riguarda il tratto Libertà/Garzilli)" }, "geometry": { "type": "MultiLineString", "coordinates": [ [ [ 13.352941530825573, 38.126141149009769 ], [ 13.354163846309635, 38.12661494293917 ] ] ] } },
{ "type": "Feature", "properties": { "fid": 8, "ID": 834228, "LABEL_INDIRIZZO": "VIA MESSINA", "LUNGHEZZA": 264.0, "UFF_CODVIA": 28010, "TIP_DES": "VIA", "UFF_DENOMINAZIONE": "MESSINA", "Odonimo": "Via Messina", "Tratto Stradale": "Tratto da via Libertà a via XX Settembre", "Tipo di Limitazione": "Divieto di sosta con rimozione coatta", "Periodo di Validità": "Dal 31/12/2025 al 01/01/2026", "Orario di Inizio": "07:00:00.000", "Orario di Fine": "07:00:00.000", "Note Aggiuntive": "Ambo i lati; non soggetta a chiusura transito (N.B. su pag. 5 la chiusura riguarda il tratto Libertà/Garzilli)" }, "geometry": { "type": "MultiLineString", "coordinates": [ [ [ 13.352684677042024, 38.126546453289336 ], [ 13.353905051879805, 38.127009936232668 ] ] ] } }
]
}
